SCS-01 D                
1 63985U 25100D   26068.75607686  .00032471  00000+0  10528-2 0  9990
2 63985  97.3730 145.4097 0006346 266.2302  93.8214 15.31902149 45621
STARLINK-35942          
1 66926U 25286B   26068.13529124  .00018468  00000+0  63444-3 0  9991
2 66926  53.1621   0.9030 0001520  51.6518 308.4620 15.30183767 15331
